GLOBALSTAR M001         
1 25162U 98008A   24178.86880949 -.00000036  00000+0  46591-3 0  9992
2 25162  52.0044 287.3891 0001760 198.3706 317.3685 12.38187093199801
GLOBALSTAR M004         
1 25163U 98008B   24178.93357128 -.00000084  00000+0  10948-3 0  9999
2 25163  52.0011  57.9200 0002310 213.6912 219.7217 12.63363075216881
GLOBALSTAR M002         
1 25164U 98008C   24178.91936095 -.00000067  00000+0  19406-3 0  9993
2 25164  52.0032  50.9737 0000690 188.5815 171.4994 11.61502673142851
GLOBALSTAR M003         
1 25165U 98008D   24178.03915637  .00000067  00000+0  16704-2 0  9992
2 25165  51.9897  74.9086 0007574 300.0482 164.3327 12.12013817190039
GLOBALSTAR M014         
1 25306U 98023A   24179.17141731 -.00000048  00000+0  54680-3 0  9994
2 25306  51.9865 341.0305 0001615  85.2708  86.1497 11.65469076149768
GLOBALSTAR M006         
1 25307U 98023B   24178.91469897 -.00000139  00000+0 -12873-2 0  9991
2 25307  51.9965  20.8742 0003735 172.3055 331.2211 11.58163420175779
GLOBALSTAR M015         
1 25308U 98023C   24179.07538819 -.00000105  00000+0 -70936-3 0  9999
2 25308  51.9822 102.6679 0012138 164.0528 295.8032 11.48852795153636
GLOBALSTAR M008         
1 25309U 98023D   24179.08287727 -.00000087  00000+0  68980-4 0  9995
2 25309  51.9946 147.5712 0002331 143.3071 296.5484 12.36044670194241
